{
  "norad_id": 68307,
  "name": "STARLINK-36264",
  "history": [
    {
      "epoch": "2026-04-11T20:00:01.000224Z",
      "apogee_km": 344.8943859415758,
      "perigee_km": 343.1291496751501,
      "latitude_deg": -70.46152240738985,
      "longitude_deg": -115.13994130002351,
      "height_km": 371.12451541482557,
      "semi_major_axis_km": 6722.148767808362,
      "eccentricity": 0.0001313,
      "inclination_deg": 97.2845,
      "raan_deg": 225.9004,
      "arg_perigee_deg": 93.3707,
      "mean_anomaly_deg": 158.2786,
      "mean_motion_rev_day": 15.75217698
    },
    {
      "epoch": "2026-04-13T06:00:02.000160Z",
      "apogee_km": 345.3256097521553,
      "perigee_km": 343.09715126401625,
      "latitude_deg": -0.4063337560015937,
      "longitude_deg": -64.01048822538813,
      "height_km": 347.0188739404457,
      "semi_major_axis_km": 6722.348380508085,
      "eccentricity": 0.00016575,
      "inclination_deg": 97.2844,
      "raan_deg": 227.3897,
      "arg_perigee_deg": 67.9006,
      "mean_anomaly_deg": 291.8366,
      "mean_motion_rev_day": 15.75147537
    },
    {
      "epoch": "2026-04-14T20:07:07.982112Z",
      "apogee_km": 345.13143349479014,
      "perigee_km": 342.62143367868975,
      "latitude_deg": 7.657012056656333e-05,
      "longitude_deg": 84.25926587118957,
      "height_km": 346.5282509893752,
      "semi_major_axis_km": 6722.01343358674,
      "eccentricity": 0.0001867,
      "inclination_deg": 97.284,
      "raan_deg": 229.0515,
      "arg_perigee_deg": 65.8352,
      "mean_anomaly_deg": 294.3109,
      "mean_motion_rev_day": 15.75265269
    },
    {
      "epoch": "2026-04-15T20:30:48.398976Z",
      "apogee_km": 345.2725359893984,
      "perigee_km": 343.07299623392555,
      "latitude_deg": 7.994276744099847e-05,
      "longitude_deg": 78.4076148063083,
      "height_km": 347.13169298072216,
      "semi_major_axis_km": 6722.309766111662,
      "eccentricity": 0.0001636,
      "inclination_deg": 97.2851,
      "raan_deg": 230.1201,
      "arg_perigee_deg": 79.1667,
      "mean_anomaly_deg": 280.9783,
      "mean_motion_rev_day": 15.75161109
    },
    {
      "epoch": "2026-04-16T14:48:33.729120Z",
      "apogee_km": 345.10266887857415,
      "perigee_km": 342.80774659885265,
      "latitude_deg": -6.135927840372006e-05,
      "longitude_deg": 164.0161716841866,
      "height_km": 346.9978516458593,
      "semi_major_axis_km": 6722.092207738713,
      "eccentricity": 0.0001707,
      "inclination_deg": 97.2852,
      "raan_deg": 230.9189,
      "arg_perigee_deg": 83.8478,
      "mean_anomaly_deg": 276.2981,
      "mean_motion_rev_day": 15.75237579
    },
    {
      "epoch": "2026-04-17T21:18:09.561888Z",
      "apogee_km": 345.07025390156195,
      "perigee_km": 343.00694932240276,
      "latitude_deg": -2.136884106606041e-05,
      "longitude_deg": 66.69715035961295,
      "height_km": 347.0228670021438,
      "semi_major_axis_km": 6722.175601611982,
      "eccentricity": 0.00015347,
      "inclination_deg": 97.2875,
      "raan_deg": 232.2515,
      "arg_perigee_deg": 79.8647,
      "mean_anomaly_deg": 280.2791,
      "mean_motion_rev_day": 15.75208266
    }
  ]
}